ONEWEB-0258             
1 48976U 21060K   25325.86063755  .00000097  00000+0  21916-3 0  9997
2 48976  87.9020 270.0737 0001876  74.8537 285.2801 13.16593570212319
ONEWEB-0259             
1 48977U 21060L   25325.85430161  .00000105  00000+0  24044-3 0  9991
2 48977  87.9029 270.0676 0002064  77.8403 282.2959 13.16593870212343
ONEWEB-0260             
1 48978U 21060M   25325.84559142  .00000032  00000+0  50701-4 0  9991
2 48978  87.9016 270.0856 0001753  91.5977 268.5355 13.16592356212326
ONEWEB-0261             
1 48979U 21060N   25325.89151818 -.00000141  00000+0 -40332-3 0  9996
2 48979  87.9011 270.0784 0002289  83.6758 276.4634 13.16595070212386
ONEWEB-0262             
1 48980U 21060P   25325.87172044 -.00000007  00000+0 -51313-4 0  9993
2 48980  87.9028 270.0535 0002098  71.7905 288.3455 13.16592756212347
ONEWEB-0263             
1 48981U 21060Q   25325.90339003 -.00000116  00000+0 -33583-3 0  9997
2 48981  87.9018 270.0630 0002293  80.9818 279.1572 13.16592490212315
ONEWEB-0264             
1 48982U 21060R   25325.86460560  .00000118  00000+0  27387-3 0  9991
2 48982  87.9016 270.0748 0002012  85.3043 274.8318 13.16596357212318
ONEWEB-0266             
1 48984U 21060T   25325.88597545 -.00000071  00000+0 -21946-3 0  9994
2 48984  87.9025 270.0546 0001894  72.9857 287.1482 13.16592722212308
